NORAD_CAT_ID,OBJECT_NAME,OBJECT_TYPE,EPOCH,MEAN_MOTION,ECCENTRICITY,INCLINATION,RA_OF_ASC_NODE,ARG_OF_PERICENTER,MEAN_ANOMALY,BSTAR,MEAN_MOTION_DOT,MEAN_MOTION_DDOT,TLE_LINE0,TLE_LINE1,TLE_LINE2,SEMIMAJOR_AXIS,PERIOD,APOGEE,PERIGEE,DECAYED
53438.0,STARLINK-4526,PAYLOAD,2022-08-15 18:00:00,15.86031974,0.0019771,53.2175,220.7437,52.4956,20.1725,-0.0050816,-0.01152363,0.0,0 STARLINK-4526,1 53438U 22097BC  22227.75001157 -.01152363  00000-0 -50816-2 0  9999,2 53438  53.2175 220.7437 0019771  52.4956  20.1725 15.86031974  1304,6691.558000000001,90.793,326.652,300.193,0.0
53438.0,STARLINK-4526,PAYLOAD,2022-08-16 06:00:02,15.84736792,0.0014337,53.2175,218.2257,48.9062,359.1932,-0.0055123,-0.01159785,0.0,0 STARLINK-4526,1 53438U 22097BC  22228.25002315 -.01159785  00000-0 -55123-2 0  9993,2 53438  53.2175 218.2257 0014337  48.9062 359.1932 15.84736792  1377,6695.203,90.867,326.6670000000001,307.469,0.0
53438.0,STARLINK-4526,PAYLOAD,2022-08-16 14:00:01,15.83877554,0.0010574999999999,53.2173,216.5483,45.9651,104.3411,-0.0058465,-0.01193553,0.0,0 STARLINK-4526,1 53438U 22097BC  22228.58334491 -.01193553  00000-0 -58465-2 0  9995,2 53438  53.2173 216.5483 0010575  45.9651 104.3411 15.83877554  1304,6697.624,90.916,326.572,312.406,0.0
53438.0,STARLINK-4526,PAYLOAD,2022-08-16 22:00:00,15.83031219,0.0007757,53.2173,214.872,41.0089,210.5228,-0.0063089,-0.01228472,0.0,0 STARLINK-4526,1 53438U 22097BC  22228.91667824 -.01228472  00000-0 -63089-2 0  9998,2 53438  53.2173 214.8720 0007757  41.0089 210.5228 15.83031219  1305,6700.011,90.965,327.073,316.6790000000001,0.0
53438.0,STARLINK-4526,PAYLOAD,2022-08-17 14:00:01,15.81273339,0.0004016999999999,53.2173,211.5306,10.5861,80.288,-0.0066321,-0.01189324,0.0,0 STARLINK-4526,1 53438U 22097BC  22229.58334491 -.01189324  00000-0 -66321-2 0  9997,2 53438  53.2173 211.5306 0004017  10.5861  80.2880 15.81273339  1309,6704.976,91.066,329.534,324.147,0.0
53438.0,STARLINK-4526,PAYLOAD,2022-08-18 08:00:01,15.79343529,0.0003168,53.2182,207.7809,348.2791,51.8488,-0.0074657,-0.01219661,0.0,0 STARLINK-4526,1 53438U 22097BC  22230.33334491 -.01219661  00000-0 -74657-2 0  9991,2 53438  53.2182 207.7809 0003168 348.2791  51.8488 15.79343529  1701,6710.437,91.177,334.427,330.176,0.0
53438.0,STARLINK-4526,PAYLOAD,2022-08-18 14:00:01,15.78667936,0.0003591,53.2174,206.532,337.2012,44.8544,-0.0074692,-0.01187385,0.0,0 STARLINK-4526,1 53438U 22097BC  22230.58334491 -.01187385  00000-0 -74692-2 0  9994,2 53438  53.2174 206.5320 0003591 337.2012  44.8544 15.78667936  1302,6712.351,91.216,336.626,331.805,0.0
53438.0,STARLINK-4526,PAYLOAD,2022-08-18 22:00:00,15.77806167,0.0003856,53.2175,204.8688,1.2707,115.756,-0.007814,-0.01193901,0.0,0 STARLINK-4526,1 53438U 22097BC  22230.91667824 -.01193901  00000-0 -78140-2 0  9993,2 53438  53.2175 204.8688 0003856   1.2707 115.7560 15.77806167  1300,6714.795,91.266,339.249,334.071,0.0
53438.0,STARLINK-4526,PAYLOAD,2022-08-19 06:00:00,15.76940565,0.0003898,53.2174,203.2113,3.5311,207.4245,-0.0081535,-0.01197684,0.0,0 STARLINK-4526,1 53438U 22097BC  22231.25001157 -.01197684  00000-0 -81535-2 0  9996,2 53438  53.2174 203.2113 0003898   3.5311 207.4245 15.76940565  1856,6717.252,91.316,341.735,336.4980000000001,0.0
53438.0,STARLINK-4526,PAYLOAD,2022-08-19 14:00:01,15.76068999,7.37e-05,53.2174,201.5526,53.1081,250.7382,-0.0084344,-0.0119051,0.0,0 STARLINK-4526,1 53438U 22097BC  22231.58334491 -.01190510  00000-0 -84344-2 0  9994,2 53438  53.2174 201.5526 0000737  53.1081 250.7382 15.76068999  1304,6719.728,91.367,342.088,341.098,0.0
53438.0,STARLINK-4526,PAYLOAD,2022-08-19 16:00:00,15.75852932,0.0001071,53.2176,201.138,47.5455,9.3593,-0.0085286,-0.0119226,0.0,0 STARLINK-4526,1 53438U 22097BC  22231.66667824 -.01192260  00000-0 -85286-2 0  9992,2 53438  53.2176 201.1380 0001071  47.5455   9.3593 15.75852932  1921,6720.342,91.379,342.927,341.487,0.0
53438.0,STARLINK-4526,PAYLOAD,2022-08-19 22:00:00,15.75201907,0.0001171999999999,53.2177,199.8961,55.2397,340.4508,-0.008768,-0.01191126,0.0,0 STARLINK-4526,1 53438U 22097BC  22231.91667824 -.01191126  00000-0 -87680-2 0  9990,2 53438  53.2177 199.8961 0001172  55.2397 340.4508 15.75201907  1300,6722.194,91.417,344.847,343.271,0.0
53438.0,STARLINK-4526,PAYLOAD,2022-08-20 08:00:01,15.73980751,0.0001537,53.2176,197.8321,56.3111,182.7411,-0.0061156,-0.00807735,0.0,0 STARLINK-4526,1 53438U 22097BC  22232.33334491 -.00807735  00000-0 -61156-2 0  9997,2 53438  53.2176 197.8321 0001537  56.3111 182.7411 15.73980751  2027,6725.67,91.488,348.569,346.501,0.0
53438.0,STARLINK-4526,PAYLOAD,2022-08-20 14:00:01,15.73407819,0.000136,53.2173,196.5924,69.1993,147.0662,-0.0022102,-0.00302602,0.0,0 STARLINK-4526,1 53438U 22097BC  22232.58334491 -.00302602  00000-0 -22102-2 0  9995,2 53438  53.2173 196.5924 0001360  69.1993 147.0662 15.73407819  2068,6727.303000000001,91.521,350.083,348.25300000000016,0.0
53438.0,STARLINK-4526,PAYLOAD,2022-08-20 22:00:00,15.73203811,0.0001159999999999,53.2175,194.9418,70.1773,235.1303,1.4647e-05,1.437e-05,0.0,0 STARLINK-4526,1 53438U 22097BC  22232.91667824  .00001437  00000-0  14647-4 0  9998,2 53438  53.2175 194.9418 0001160  70.1773 235.1303 15.73203811  2119,6727.884,91.533,350.53,348.969,0.0
53438.0,STARLINK-4526,PAYLOAD,2022-08-21 06:00:00,15.73241836,0.0001238,53.2196,193.2964,68.6632,325.6534,-0.00048768,-0.00068628,0.0,0 STARLINK-4526,1 53438U 22097BC  22233.25001157 -.00068628  00000-0 -48768-3 0  9994,2 53438  53.2196 193.2964 0001238  68.6632 325.6534 15.73241836  2167,6727.776,91.531,350.474,348.80800000000005,0.0
53438.0,STARLINK-4526,PAYLOAD,2022-08-21 14:00:01,15.7320335,0.0001125,53.2197,191.6456,72.8991,50.3836,-0.00049263,-0.00069199,0.0,0 STARLINK-4526,1 53438U 22097BC  22233.58334491 -.00069199  00000-0 -49263-3 0  9995,2 53438  53.2197 191.6456 0001125  72.8991  50.3836 15.73203350  1307,6727.886,91.533,350.5080000000001,348.994,0.0
53438.0,STARLINK-4526,PAYLOAD,2022-08-21 22:00:00,15.73166914,0.0001122,53.2199,189.9957,81.1258,131.0467,0.00029856,0.00041428,0.0,0 STARLINK-4526,1 53438U 22097BC  22233.91667824  .00041428  00000-0  29856-3 0  9990,2 53438  53.2199 189.9957 0001122  81.1258 131.0467 15.73166914  1302,6727.99,91.535,350.6090000000001,349.1,0.0
53438.0,STARLINK-4526,PAYLOAD,2022-08-22 12:00:00,15.73226336,0.0001159,53.2191,187.1104,71.8716,205.8863,-2.5648e-06,-9.8e-06,0.0,0 STARLINK-4526,1 53438U 22097BC  22234.50001157 -.00000980  00000-0 -25648-5 0  9994,2 53438  53.2191 187.1104 0001159  71.8716 205.8863 15.73226336  1308,6727.82,91.532,350.465,348.905,0.0
53438.0,STARLINK-4526,PAYLOAD,2022-08-22 22:00:00,15.73224081,0.0001296999999999,53.2196,185.0478,85.3528,33.5997,-0.00022816,-0.0003255,0.0,0 STARLINK-4526,1 53438U 22097BC  22234.91667824 -.00032550  00000-0 -22816-3 0  9998,2 53438  53.2196 185.0478 0001297  85.3528  33.5997 15.73224081  2432,6727.8269999999975,91.532,350.564,348.819,0.0
53438.0,STARLINK-4526,PAYLOAD,2022-08-23 14:00:01,15.7312535,0.0001326,53.2184,181.7472,78.0642,218.7774,0.00063291,0.00088863,0.0,0 STARLINK-4526,1 53438U 22097BC  22235.58334491  .00088863  00000-0  63291-3 0  9991,2 53438  53.2184 181.7472 0001326  78.0642 218.7774 15.73125350  1309,6728.108,91.538,350.865,349.081,0.0
53438.0,STARLINK-4526,PAYLOAD,2022-08-23 20:00:01,15.7325161,0.0001489,53.2185,180.5088,84.7379,188.8113,-0.0014590999999999,-0.00201027,0.0,0 STARLINK-4526,1 53438U 22097BC  22235.83334491 -.00201027  00000-0 -14591-2 0  9998,2 53438  53.2185 180.5088 0001489  84.7379 188.8113 15.73251610  2574,6727.748000000001,91.53,350.615,348.611,0.0
53438.0,STARLINK-4526,PAYLOAD,2022-08-23 22:00:01,15.73125474,0.0001467,53.2184,180.0964,87.4552,298.4258,0.00019586,0.00026868,0.0,0 STARLINK-4526,1 53438U 22097BC  22235.91668981  .00026868  00000-0  19586-3 0  9997,2 53438  53.2184 180.0964 0001467  87.4552 298.4258 15.73125474  1306,6728.108,91.538,350.96,348.986,0.0
53438.0,STARLINK-4526,PAYLOAD,2022-08-24 06:00:00,15.73177246,0.0001181,53.2201,178.4522,70.8672,43.8732,0.0004676,0.00065453,0.0,0 STARLINK-4526,1 53438U 22097BC  22236.25001157  .00065453  00000-0  46760-3 0  9998,2 53438  53.2201 178.4522 0001181  70.8672  43.8732 15.73177246  2640,6727.96,91.535,350.62,349.03,0.0
53438.0,STARLINK-4526,PAYLOAD,2022-08-24 14:00:01,15.73231461,9.68e-05,53.22,176.8011,79.557,124.1156,-0.00058587,-0.00082151,0.0,0 STARLINK-4526,1 53438U 22097BC  22236.58334491 -.00082151  00000-0 -58587-3 0  9990,2 53438  53.2200 176.8011 0000968  79.5570 124.1156 15.73231461  1304,6727.805,91.531,350.32199999999995,349.019,0.0
53438.0,STARLINK-4526,PAYLOAD,2022-08-24 16:00:00,15.73180459,9.18e-05,53.2199,176.3885,85.4019,230.5218,3.5247e-05,4.326e-05,0.0,0 STARLINK-4526,1 53438U 22097BC  22236.66667824  .00004326  00000-0  35247-4 0  9993,2 53438  53.2199 176.3885 0000918  85.4019 230.5218 15.73180459  2700,6727.951,91.534,350.434,349.1980000000001,0.0
53438.0,STARLINK-4526,PAYLOAD,2022-08-24 22:00:00,15.73192774,8.66e-05,53.2203,175.15200000000004,86.1395,206.4579,6.6523e-05,8.723e-05,0.0,0 STARLINK-4526,1 53438U 22097BC  22236.91667824  .00008723  00000-0  66523-4 0  9997,2 53438  53.2203 175.1520 0000866  86.1395 206.4579 15.73192774  1306,6727.916,91.534,350.36300000000006,349.1980000000001,0.0
53438.0,STARLINK-4526,PAYLOAD,2022-08-25 14:00:01,15.73223848,8.499999999999999e-05,53.2209,171.8533,79.5775,30.8868,9.4407e-06,7.07e-06,0.0,0 STARLINK-4526,1 53438U 22097BC  22237.58334491  .00000707  00000-0  94407-5 0  9999,2 53438  53.2209 171.8533 0000850  79.5775  30.8868 15.73223848  1307,6727.8269999999975,91.532,350.264,349.12,0.0
53438.0,STARLINK-4526,PAYLOAD,2022-08-25 22:00:00,15.73225811,0.0001092,53.2211,170.204,82.2855,117.1366,-0.00035539,-0.00050253,0.0,0 STARLINK-4526,1 53438U 22097BC  22237.91667824 -.00050253  00000-0 -35539-3 0  9997,2 53438  53.2211 170.2040 0001092  82.2855 117.1366 15.73225811  1309,6727.821999999999,91.532,350.421,348.952,0.0
